[{"OBJECT_NAME":"STARLINK-2040","OBJECT_ID":"2021-012AN","EPOCH":"2026-03-09T05:27:02.755872","MEAN_MOTION":15.29358641,"ECCENTRICITY":0.00013955,"INCLINATION":53.1596,"RA_OF_ASC_NODE":51.6846,"ARG_OF_PERICENTER":87.6283,"MEAN_ANOMALY":272.4877,"EPHEMERIS_TYPE":0,"CLASSIFICATION_TYPE":"U","NORAD_CAT_ID":47656,"ELEMENT_SET_NO":999,"REV_AT_EPOCH":28022,"BSTAR":6.79193e-7,"MEAN_MOTION_DOT":-3.36e-6,"MEAN_MOTION_DDOT":0},{"OBJECT_NAME":"CZ-4C R\/B","OBJECT_ID":"2015-069B","EPOCH":"2026-03-09T18:13:41.887776","MEAN_MOTION":15.30824061,"ECCENTRICITY":0.00587215,"INCLINATION":97.486,"RA_OF_ASC_NODE":137.7913,"ARG_OF_PERICENTER":156.3643,"MEAN_ANOMALY":204.0316,"EPHEMERIS_TYPE":0,"CLASSIFICATION_TYPE":"U","NORAD_CAT_ID":41039,"ELEMENT_SET_NO":999,"REV_AT_EPOCH":56689,"BSTAR":0.0003480254,"MEAN_MOTION_DOT":0.00010856,"MEAN_MOTION_DDOT":0}]
